METHANESAT              
1 59101U 24043D   25211.07286757  .00002322  00000+0  21445-3 0  9999
2 59101  97.8052 336.9449 0010991  12.1670 347.9814 14.95556880 76464
GOSAT-GW (IBUKI GW)     
1 64694U 25141A   25210.89796219  .00000821  00000+0  15311-3 0  9997
2 64694  98.0258 149.0219 0001450  85.3887 274.7484 14.67571351  4570
GHGSAT-C1               
1 46278U 20061G   25211.18165403  .00015871  00000+0  26637-3 0  9993
2 46278  97.2478 285.2064 0003161 130.5318 229.6210 15.51877108273259
GHGSAT-C2               
1 47509U 21006DA  25210.87554064  .00005584  00000+0  17869-3 0  9998
2 47509  97.2648 258.7564 0004360 234.8671 125.2163 15.32798609250393
GHGSAT-C3               
1 52737U 22057F   25211.16824607  .00006374  00000+0  23021-3 0  9995
2 52737  97.6182 342.0075 0006975 169.6181 190.5203 15.28826640176241
GHGSAT-C4               
1 52746U 22057Q   25211.18651746  .00006303  00000+0  22771-3 0  9992
2 52746  97.6113 341.1773 0007532 156.3957 203.7629 15.28819838176255
GHGSAT-C5               
1 52744U 22057N   25211.13739549  .00006270  00000+0  22662-3 0  9995
2 52744  97.6271 343.1764 0008045 167.6988 192.4449 15.28805608176242
GHGSAT-C6               
1 56204U 23054AC  25211.20603719  .00010279  00000+0  23874-3 0  9995
2 56204  97.3260 112.4816 0010883 127.2306 232.9937 15.42488590128653
GHGSAT-C7               
1 56209U 23054AH  25211.22052039  .00008193  00000+0  19597-3 0  9994
2 56209  97.3222 112.0366 0010914 121.0063 239.2258 15.41672951128650
GHGSAT-C8               
1 56186U 23054J   25211.18078665  .00009834  00000+0  22855-3 0  9990
2 56186  97.3229 111.9396 0007750 141.0620 219.1187 15.42512760128635
SENTINEL-5P             
1 42969U 17064A   25210.80049267  .00000067  00000+0  52728-4 0  9994
2 42969  98.7585 150.7426 0001335  84.1619 275.9709 14.19534993403824
ENMAP                   
1 52159U 22033C   25210.86129062  .00000444  00000+0  73561-4 0  9993
2 52159  97.9780 292.7406 0001279  88.6394 271.4961 14.74972616179140
PRISMA                  
1 44072U 19015A   25211.17341424  .00000841  00000+0  10827-3 0  9993
2 44072  97.8736 285.5629 0001231  94.0938 266.0417 14.83648207344309
SENTINEL-2A             
1 40697U 15028A   25211.18674263  .00000114  00000+0  59981-4 0  9991
2 40697  98.5677 285.6583 0001161  94.7242 265.4073 14.30821805527681
SENTINEL-2B             
1 42063U 17013A   25211.17954315  .00000117  00000+0  61311-4 0  9997
2 42063  98.5680 285.5935 0001268  98.5563 261.5764 14.30823657438604
SENTINEL-2C             
1 60989U 24157A   25211.21475622  .00000113  00000+0  59628-4 0  9999
2 60989  98.5668 285.7017 0001195  97.5697 262.5622 14.30822188 46940
LANDSAT 8               
1 39084U 13008A   25211.17113308  .00000344  00000+0  86359-4 0  9996
2 39084  98.2234 281.1159 0001236  89.8938 270.2402 14.57113439662827
LANDSAT 9               
1 49260U 21088A   25211.20546624  .00000371  00000+0  92447-4 0  9990
2 49260  98.2253 281.1514 0001312  84.7862 275.3486 14.57111191204109
TANAGER-1               
1 60507U 24149AR  25210.76396067  .00020084  00000+0  44447-3 0  9991
2 60507  97.4004 295.6712 0009079 235.9173 124.1214 15.43794698 53291
